[{"OBJECT_NAME":"STARLINK-5755","OBJECT_ID":"2023-020AH","EPOCH":"2026-03-08T05:04:17.677344","MEAN_MOTION":15.02545506,"ECCENTRICITY":0.00010617,"INCLINATION":43.0059,"RA_OF_ASC_NODE":359.9807,"ARG_OF_PERICENTER":282.3198,"MEAN_ANOMALY":77.7525,"EPHEMERIS_TYPE":0,"CLASSIFICATION_TYPE":"U","NORAD_CAT_ID":55600,"ELEMENT_SET_NO":999,"REV_AT_EPOCH":16884,"BSTAR":0.00011301118,"MEAN_MOTION_DOT":1.324e-5,"MEAN_MOTION_DDOT":0},{"OBJECT_NAME":"FALCON 9 DEB","OBJECT_ID":"2021-041BG","EPOCH":"2026-03-09T15:47:07.516032","MEAN_MOTION":15.0585876,"ECCENTRICITY":0.00124165,"INCLINATION":53.0346,"RA_OF_ASC_NODE":200.9185,"ARG_OF_PERICENTER":159.6872,"MEAN_ANOMALY":200.4613,"EPHEMERIS_TYPE":0,"CLASSIFICATION_TYPE":"U","NORAD_CAT_ID":48607,"ELEMENT_SET_NO":999,"REV_AT_EPOCH":26415,"BSTAR":0.00013916149,"MEAN_MOTION_DOT":1.762e-5,"MEAN_MOTION_DDOT":0}]
